149P/Mueller,e,34.2693,143.6947,30.0154,4.135301,0.1172043,0.32446975,337.0948,06/03.0/2026,2000,g  8.0,8.0
# From MPC191606
150P/LONEOS,e,18.5460,272.0510,246.1356,3.872451,0.1293377,0.54942601,105.0557,06/03.0/2026,2000,g 13.5,4.0
# From MPC191606
151P/Helin,e,4.7217,143.0492,216.1794,5.769303,0.0711245,0.57205302,276.6103,06/03.0/2026,2000,g 10.0,6.0
# From MPC191606
152P/Helin-Lawrence,e,9.8795,91.7767,164.3583,4.486312,0.1037218,0.30639831,166.3217,06/03.0/2026,2000,g 11.5,4.0
# From MPC191606
154P/Brewington,e,17.6410,342.9952,47.8965,4.791802,0.0939628,0.67607884,67.6513,06/03.0/2026,2000,g  2.5,12.0
# From MPC191607
156P/Russell-LINEAR,e,17.2550,35.3185,0.5336,3.462672,0.1529632,0.61464690,309.2721,06/03.0/2026,2000,g 15.5,2.0
# From MPC191607
157P/Tritton,e,12.4249,287.4960,155.2029,3.548557,0.1474437,0.55658509,200.7690,06/03.0/2026,2000,g 10.0,4.0
# From MPEC 2022-VC5
157P-B/Tritton,e,12.4278,153.8604,287.2482,3.102748,0.1803368,0.49975571,245.8478,06/03.0/2026,2000,g 15.7,4.0
# From MPC191607
158P/Kowal-LINEAR,e,7.5059,124.1357,235.5529,5.750696,0.0714699,0.11298742,93.6902,06/03.0/2026,2000,g  9.0,4.0
# From MPC191607
159P/LONEOS,e,23.4719,54.9333,4.7653,5.857044,0.0695323,0.38205022,203.7282,06/03.0/2026,2000,g 10.0,4.0
# From MPC191607
160P/LINEAR,e,15.5888,333.3104,12.7742,3.781138,0.1340511,0.52486135,318.6827,06/03.0/2026,2000,g 15.5,2.0
# From MPC191607
161P/Hartley-IRAS,e,95.7907,1.4755,47.0700,7.722058,0.0459309,0.83616513,351.8467,06/03.0/2026,2000,g  8.5,6.0
# From MPC191607
162P/SidingSpring,e,27.5525,30.8672,357.2526,3.090967,0.1813688,0.58281147,2.9297,06/03.0/2026,2000,g 12.0,4.0
# From MPC191607
163P/NEAT,e,12.7243,102.0663,349.6936,3.759220,0.1352251,0.45342897,336.4663,06/03.0/2026,2000,g 14.5,4.0
# From MPEC 2026-KB8
164P/Christensen,e,16.2755,88.2600,325.8907,3.650281,0.1413236,0.54135779,52.5293,06/03.0/2026,2000,g 11.0,4.0
# From MPC191608
165P/LINEAR,e,15.9166,0.5830,126.0166,17.81919,0.0131030,0.61957365,124.1577,06/03.0/2026,2000,g 11.5,2.0
# From MPC191608
166P/NEAT,e,15.3816,64.3529,321.9872,13.85654,0.0191083,0.38145598,167.6429,06/03.0/2026,2000,g  5.5,4.0
# From MPC191608
167P/CINEOS,e,19.0723,295.8445,344.1911,16.23739,0.0150636,0.26814214,138.7540,06/03.0/2026,2000,g  9.5,2.0
# From MPC191608
168P/Hergenrother,e,21.5951,355.3777,15.0928,3.585572,0.1451665,0.62101869,1.1187,06/03.0/2026,2000,g 15.5,4.0
# From MPEC 2026-KB8
169P/NEAT,e,11.2848,176.0346,218.1364,2.603688,0.2345960,0.76790103,334.1035,06/03.0/2026,2000,g 16.0,2.0
# From MPC191608
170P/Christensen,e,10.1379,142.6390,224.4640,4.188433,0.1149811,0.30576739,131.6816,06/03.0/2026,2000,g 12.0,4.0
# From MPC194201
171P/Spahr,e,21.9546,101.6921,347.0391,3.551834,0.1472397,0.50274094,36.9640,06/03.0/2026,2000,g 13.5,4.0
# From MPC191608
172P/Yeung,e,11.2209,30.8743,208.8672,4.225564,0.1134689,0.20528405,24.1317,06/03.0/2026,2000,g 13.0,4.0
# From MPC191608
173P/Mueller,e,16.4931,100.3459,29.4011,5.718187,0.0720803,0.26243602,117.2766,06/03.0/2026,2000,g  7.5,4.0
# From MPEC 2026-HH0
175P/Hergenrother,e,4.9295,109.7948,74.5999,3.688134,0.1391535,0.37444634,347.1679,06/03.0/2026,2000,g 14.0,4.0
# From MPC191609
178P/Hug-Bell,e,11.0925,102.7838,297.9642,3.632537,0.1423604,0.48205190,305.3942,06/03.0/2026,2000,g 13.5,4.0
# From MPC194201
179P/Jedicke,e,19.8890,115.5041,297.2610,5.938306,0.0681099,0.30491506,99.6923,06/03.0/2026,2000,g  2.5,8.0
# From MPC191609
180P/NEAT,e,16.8599,84.5462,94.6037,3.867083,0.1296071,0.35418131,136.9271,06/03.0/2026,2000,g 11.0,4.0
# From MPC191609
181P/Shoemaker-Levy,e,17.4664,35.4314,336.2940,3.880179,0.1289515,0.69936614,207.2939,06/03.0/2026,2000,g 11.5,4.0
# From MPC191609
182P/LONEOS,e,16.2295,72.4321,54.2538,2.947892,0.1947317,0.66409954,288.4617,06/03.0/2026,2000,g 18.0,4.0
# From MPC194201
183P/Korlevic-Juric,e,18.7293,3.1677,161.2487,4.725372,0.0959511,0.10392456,316.3285,06/03.0/2026,2000,g 12.5,2.0
# From MPC191609
184P/Lovas,e,4.5681,173.2191,186.5739,3.802280,0.1329346,0.54943488,272.2604,06/03.0/2026,2000,g 13.5,4.0
# From MPC191609
185P/Petriew,e,14.0016,214.1242,181.9239,3.100401,0.1805416,0.69905276,190.7413,06/03.0/2026,2000,g 15.0,4.0
# From MPC191609
186P/Garradd,e,28.7843,325.6149,266.8262,4.875975,0.0915402,0.12202223,253.3471,06/03.0/2026,2000,g  7.5,4.0
# From MPC191610
187P/LINEAR,e,13.6690,109.8469,132.2960,4.542547,0.1018017,0.15676216,297.4258,06/03.0/2026,2000,g  9.0,4.0
# From MPC194201
188P/LINEAR-Mueller,e,10.5262,358.9112,26.8568,4.362449,0.1081704,0.41636741,5.4785,06/03.0/2026,2000,g 11.5,4.0
# From MPC194201
190P/Mueller,e,2.1793,335.3973,50.3898,4.225078,0.1134885,0.52349689,59.6895,06/03.0/2026,2000,g 13.0,4.0
# From MPC191610
191P/McNaught,e,8.8393,98.1793,284.2404,3.641929,0.1418100,0.38473862,269.6710,06/03.0/2026,2000,g 13.0,4.0
# From MPC191610
192P/Shoemaker-Levy,e,24.5761,51.4867,313.0189,6.437767,0.0603394,0.77316919,44.6343,06/03.0/2026,2000,g 15.0,4.0
# From MPC191610
193P/LINEAR-NEAT,e,10.6769,335.1792,8.0722,3.580753,0.1454597,0.39238627,253.9074,06/03.0/2026,2000,g 14.0,4.0
# From MPC191610
194P/LINEAR,e,11.8033,349.4835,128.6854,4.124602,0.1176606,0.56337142,99.9604,06/03.0/2026,2000,g 16.0,4.0
# From MPEC 2026-K60
195P/Hill,e,36.4152,243.0850,250.6964,6.438750,0.0603256,0.31027687,18.1404,06/03.0/2026,2000,g  8.5,4.0
# From MPC191610
196P/Tichy,e,19.2866,24.1246,12.1495,3.807592,0.1326565,0.42704381,174.2324,06/03.0/2026,2000,g 13.5,4.0
# From MPC191611
197P/LINEAR,e,25.1334,66.0435,190.0170,2.913052,0.1982356,0.61656972,253.4724,06/03.0/2026,2000,g 16.5,2.0
# From MPC191611
198P/ODAS,e,1.3394,358.3131,69.2911,3.633326,0.1423140,0.44824948,27.5895,06/03.0/2026,2000,g 12.5,4.0
# From MPC191611
199P/Shoemaker,e,24.9412,92.3388,191.7105,5.868839,0.0693228,0.50409930,71.4807,06/03.0/2026,2000,g 10.0,4.0
# From MPC191611
200P/Larsen,e,12.0942,234.7360,134.4155,4.956004,0.0893319,0.33051192,223.6672,06/03.0/2026,2000,g  9.0,4.0
# From MPC191611
201P/LONEOS,e,5.7331,19.6638,41.6701,3.354322,0.1604342,0.63733673,293.8444,06/03.0/2026,2000,g 14.0,4.0
# From MPC191611
202P/Scotti,e,2.1415,177.2982,274.5623,4.099957,0.1187231,0.25085725,88.6352,06/03.0/2026,2000,g 13.5,4.0
# From MPC191611
203P/Korlevic,e,2.9761,290.2202,154.9906,4.668450,0.0977113,0.31624467,222.5338,06/03.0/2026,2000,g 14.5,2.0
# From MPC191611
204P/LINEAR-NEAT,e,6.5982,108.4721,356.7595,3.584510,0.1452310,0.48825198,187.8337,06/03.0/2026,2000,g 14.0,4.0
# From MPC191611
205P/Giacobini,e,15.3008,179.6238,154.1224,3.543523,0.1477580,0.56723794,236.9034,06/03.0/2026,2000,g 13.0,4.0
# From MPC191612
207P/NEAT,e,10.1959,198.0949,273.0912,3.887489,0.1285880,0.75850242,109.6876,06/03.0/2026,2000,g 16.0,4.0
# From MPC191612
208P/McMillan,e,4.3962,36.0062,311.7507,4.061621,0.1204079,0.37483360,77.7352,06/03.0/2026,2000,g 12.5,4.0
# From MPC191612
209P/LINEAR,e,21.2890,62.7446,152.4755,2.956933,0.1938393,0.67426434,133.4454,06/03.0/2026,2000,g 17.0,2.0
# From MPEC 2026-KB8
210P/Christensen,e,10.2871,93.7971,345.9494,3.159970,0.1754606,0.83402750,33.7372,06/03.0/2026,2000,g 13.5,4.0
# From MPC191612
211P/Hill,e,18.9263,117.1000,4.3904,3.548677,0.1474363,0.34460417,197.0034,06/03.0/2026,2000,g 12.5,4.0
# From MPC191612
212P/NEAT,e,22.1480,97.9725,14.0992,3.904831,0.1277323,0.58671250,98.1979,06/03.0/2026,2000,g 17.0,2.0
# From MPC191612
213P/VanNess,e,10.7845,310.2084,8.3177,3.362814,0.1598269,0.41811298,146.4399,06/03.0/2026,2000,g 10.5,4.0
# From MPEC 2025-GB9
213P-B/Van Ness,e,10.7831,310.2068,8.3285,3.362511,0.1598485,0.41802476,146.4798,06/03.0/2026,2000,g 17.0,4.0
# From MPC191612
214P/LINEAR,e,15.1961,348.2257,190.1175,3.615375,0.1433752,0.48671847,192.8163,06/03.0/2026,2000,g 13.0,4.0
# From MPEC 2026-HI3
215P/NEAT,e,10.5753,56.6844,262.0794,4.337699,0.1090975,0.16484246,261.3482,06/03.0/2026,2000,g 11.0,4.0
# From MPC191612
216P/LINEAR,e,9.0629,359.7571,151.8144,3.860954,0.1299158,0.44919003,114.0342,06/03.0/2026,2000,g 13.0,4.0
# From MPEC 2026-HI3
217P/LINEAR,e,12.8723,125.3706,246.9786,3.945997,0.1257387,0.68973225,47.0157,06/03.0/2026,2000,g 12.0,4.0
# From MPEC 2026-J34
218P/LINEAR,e,2.7265,174.7222,61.3999,3.059375,0.1841853,0.63087057,16.7057,06/03.0/2026,2000,g 16.0,4.0
# From MPC191613
219P/LINEAR,e,11.3882,229.6820,109.2955,3.659750,0.1407754,0.35970366,117.5402,06/03.0/2026,2000,g 11.0,4.0
# From MPEC 2026-KB8
220P/McNaught,e,8.1208,150.0836,180.5641,3.120781,0.1787759,0.50034774,358.0118,06/03.0/2026,2000,g 15.0,4.0
# From MPC191613
221P/LINEAR,e,10.2792,221.0401,47.5153,3.381036,0.1585365,0.52192243,253.6901,06/03.0/2026,2000,g 14.5,4.0
# From MPC191613
223P/Skiff,e,27.0074,346.6853,37.9875,4.158258,0.1162350,0.41602272,311.5423,06/03.0/2026,2000,g 12.0,4.0
# From MPC191613
224P/LINEAR-NEAT,e,13.2960,40.0339,16.8400,3.448196,0.1539275,0.40516295,206.5866,06/03.0/2026,2000,g 15.5,4.0
# From MPC191613
226P/Pigott-LINEAR-Kowalski,e,44.0390,54.0236,341.0391,3.765746,0.1348738,0.52853639,119.9295,06/03.0/2026,2000,g 12.5,4.0
# From MPC191614
227P/Catalina-LINEAR,e,7.5062,36.7764,105.6364,3.438170,0.1546013,0.52783832,126.2277,06/03.0/2026,2000,g 16.5,2.0
# From MPC191614
228P/LINEAR,e,7.9182,30.9489,114.9494,4.159896,0.1161664,0.17783066,264.1108,06/03.0/2026,2000,g 14.5,2.0
# From MPC191614
229P/Gibbs,e,26.1222,157.8026,224.4057,3.930034,0.1265056,0.37896994,57.3906,06/03.0/2026,2000,g 13.0,4.0
# From MPC191614
230P/LINEAR,e,15.4726,106.9244,313.5926,3.455607,0.1534326,0.54513182,235.7196,06/03.0/2026,2000,g 13.0,4.0
# From MPC191614
231P/LINEAR-NEAT,e,12.2793,132.7320,43.1726,4.071977,0.1199488,0.24006062,309.0190,06/03.0/2026,2000,g 14.5,2.0
# From MPC191614
232P/Hill,e,14.6437,55.9833,53.4025,4.468054,0.1043582,0.33623414,272.2491,06/03.0/2026,2000,g 11.5,4.0
# From MPC194202
233P/LaSagra,e,11.2890,74.9133,26.9650,3.027195,0.1871300,0.41309820,27.3125,06/03.0/2026,2000,g 15.0,4.0
# From MPC191614
234P/LINEAR,e,11.5332,179.5487,357.5067,3.799570,0.1330768,0.25755000,78.1236,06/03.0/2026,2000,g 12.0,4.0
# From MPEC 2026-KB8
